[{"OBJECT_NAME":"OBJECT B","OBJECT_ID":"2024-153B","EPOCH":"2026-03-09T23:15:18.632160","MEAN_MOTION":15.30512917,"ECCENTRICITY":0.00113423,"INCLINATION":97.6622,"RA_OF_ASC_NODE":204.9195,"ARG_OF_PERICENTER":149.8438,"MEAN_ANOMALY":210.3457,"EPHEMERIS_TYPE":0,"CLASSIFICATION_TYPE":"U","NORAD_CAT_ID":60746,"ELEMENT_SET_NO":999,"REV_AT_EPOCH":8476,"BSTAR":0.00066193599,"MEAN_MOTION_DOT":0.00019515,"MEAN_MOTION_DDOT":0},{"OBJECT_NAME":"STARLINK-35218","OBJECT_ID":"2025-253X","EPOCH":"2026-03-09T10:40:20.344224","MEAN_MOTION":15.27591897,"ECCENTRICITY":0.00012834,"INCLINATION":43.0018,"RA_OF_ASC_NODE":214.1773,"ARG_OF_PERICENTER":267.9968,"MEAN_ANOMALY":92.0736,"EPHEMERIS_TYPE":0,"CLASSIFICATION_TYPE":"U","NORAD_CAT_ID":66340,"ELEMENT_SET_NO":999,"REV_AT_EPOCH":2020,"BSTAR":0.0009354775,"MEAN_MOTION_DOT":0.00025579,"MEAN_MOTION_DDOT":0}]
